{
  "type": "FeatureCollection",
  "features": [
    {
      "type": "Feature",
      "properties": {
        "norad_id": 31152,
        "name": "FENGYUN 1C DEB",
        "group": "fengyun-1c-debris",
        "lat": -48.90484398097706,
        "lon": 137.45703963240186,
        "alt_km": 872.4060902562733,
        "timestamp": "2025-12-06T11:28:11.343111+00:00",
        "meta_object_name": "FENGYUN 1C DEB",
        "meta_object_id": "1999-025BHE",
        "meta_epoch": "2025-12-03T11:11:56.086368",
        "meta_mean_motion": 14.3583736,
        "meta_eccentricity": 0.01305551,
        "meta_inclination": 98.4135,
        "meta_ra_of_asc_node": 324.2876,
        "meta_arg_of_pericenter": 60.8292,
        "meta_mean_anomaly": 92.227,
        "meta_ephemeris_type": 0,
        "meta_classification_type": "U",
        "meta_norad_cat_id": 31152,
        "meta_element_set_no": 999,
        "meta_rev_at_epoch": 97915,
        "meta_bstar": 0.00016397247,
        "meta_mean_motion_dot": 4.78e-06,
        "meta_mean_motion_ddot": 0,
        "tle_line1": "1 31152U 99025BHE 25337.46662137  .00000478  00000+0  16397-3 0  9999",
        "tle_line2": "2 31152  98.4135 324.2876 0130555  60.8292  92.2270 14.35837360979155"
      },
      "geometry": {
        "type": "Point",
        "coordinates": [
          137.45703963240186,
          -48.90484398097706
        ]
      }
    },
    {
      "type": "Feature",
      "properties": {
        "norad_id": 31155,
        "name": "FENGYUN 1C DEB",
        "group": "fengyun-1c-debris",
        "lat": 37.69131931651765,
        "lon": 42.32442621233732,
        "alt_km": 800.8643969580853,
        "timestamp": "2025-12-06T11:28:11.343121+00:00",
        "meta_object_name": "FENGYUN 1C DEB",
        "meta_object_id": "1999-025BHH",
        "meta_epoch": "2025-12-05T21:39:03.400416",
        "meta_mean_motion": 14.08284808,
        "meta_eccentricity": 0.00890747,
        "meta_inclination": 99.0425,
        "meta_ra_of_asc_node": 48.8151,
        "meta_arg_of_pericenter": 22.3069,
        "meta_mean_anomaly": 338.1937,
        "meta_ephemeris_type": 0,
        "meta_classification_type": "U",
        "meta_norad_cat_id": 31155,
        "meta_element_set_no": 999,
        "meta_rev_at_epoch": 95491,
        "meta_bstar": 0.0020315981,
        "meta_mean_motion_dot": 3.558e-05,
        "meta_mean_motion_ddot": 0,
        "tle_line1": "1 31155U 99025BHH 25339.90212269  .00003558  00000+0  20316-2 0  9997",
        "tle_line2": "2 31155  99.0425  48.8151 0089074  22.3069 338.1937 14.08284808954918"
      },
      "geometry": {
        "type": "Point",
        "coordinates": [
          42.32442621233732,
          37.69131931651765
        ]
      }
    },
    {
      "type": "Feature",
      "properties": {
        "norad_id": 31157,
        "name": "FENGYUN 1C DEB",
        "group": "fengyun-1c-debris",
        "lat": 18.057160492289064,
        "lon": -38.561221155184654,
        "alt_km": 756.4327120546423,
        "timestamp": "2025-12-06T11:28:11.343132+00:00",
        "meta_object_name": "FENGYUN 1C DEB",
        "meta_object_id": "1999-025BHK",
        "meta_epoch": "2025-11-30T18:39:07.604640",
        "meta_mean_motion": 14.22530915,
        "meta_eccentricity": 0.01006996,
        "meta_inclination": 98.4764,
        "meta_ra_of_asc_node": 318.7411,
        "meta_arg_of_pericenter": 1.4873,
        "meta_mean_anomaly": 358.6586,
        "meta_ephemeris_type": 0,
        "meta_classification_type": "U",
        "meta_norad_cat_id": 31157,
        "meta_element_set_no": 999,
        "meta_rev_at_epoch": 96813,
        "meta_bstar": 0.00031330561,
        "meta_mean_motion_dot": 6.94e-06,
        "meta_mean_motion_ddot": 0,
        "tle_line1": "1 31157U 99025BHK 25334.77717135  .00000694  00000+0  31331-3 0  9999",
        "tle_line2": "2 31157  98.4764 318.7411 0100699   1.4873 358.6586 14.22530915968130"
      },
      "geometry": {
        "type": "Point",
        "coordinates": [
          -38.561221155184654,
          18.057160492289064
        ]
      }
    },
    {
      "type": "Feature",
      "properties": {
        "norad_id": 31158,
        "name": "FENGYUN 1C DEB",
        "group": "fengyun-1c-debris",
        "lat": -51.25697989419139,
        "lon": 70.15588555222124,
        "alt_km": 797.5831962077191,
        "timestamp": "2025-12-06T11:28:11.343141+00:00",
        "meta_object_name": "FENGYUN 1C DEB",
        "meta_object_id": "1999-025BHL",
        "meta_epoch": "2025-12-01T22:47:41.317728",
        "meta_mean_motion": 14.33065926,
        "meta_eccentricity": 0.00482848,
        "meta_inclination": 98.7835,
        "meta_ra_of_asc_node": 54.4553,
        "meta_arg_of_pericenter": 67.2099,
        "meta_mean_anomaly": 293.4175,
        "meta_ephemeris_type": 0,
        "meta_classification_type": "U",
        "meta_norad_cat_id": 31158,
        "meta_element_set_no": 999,
        "meta_rev_at_epoch": 64325,
        "meta_bstar": 0.0019469313,
        "meta_mean_motion_dot": 5.364e-05,
        "meta_mean_motion_ddot": 0,
        "tle_line1": "1 31158U 99025BHL 25335.94978377  .00005364  00000+0  19469-2 0  9993",
        "tle_line2": "2 31158  98.7835  54.4553 0048284  67.2099 293.4175 14.33065926643255"
      },
      "geometry": {
        "type": "Point",
        "coordinates": [
          70.15588555222124,
          -51.25697989419139
        ]
      }
    },
    {
      "type": "Feature",
      "properties": {
        "norad_id": 31159,
        "name": "FENGYUN 1C DEB",
        "group": "fengyun-1c-debris",
        "lat": -76.20044004205836,
        "lon": 85.78216638688544,
        "alt_km": 519.6517707069497,
        "timestamp": "2025-12-06T11:28:11.343151+00:00",
        "meta_object_name": "FENGYUN 1C DEB",
        "meta_object_id": "1999-025BHM",
        "meta_epoch": "2025-12-04T03:39:16.540128",
        "meta_mean_motion": 15.3655722,
        "meta_eccentricity": 0.0117538,
        "meta_inclination": 97.7987,
        "meta_ra_of_asc_node": 297.2344,
        "meta_arg_of_pericenter": 43.5232,
        "meta_mean_anomaly": 317.5213,
        "meta_ephemeris_type": 0,
        "meta_classification_type": "U",
        "meta_norad_cat_id": 31159,
        "meta_element_set_no": 999,
        "meta_rev_at_epoch": 99421,
        "meta_bstar": 0.002496954,
        "meta_mean_motion_dot": 0.00113697,
        "meta_mean_motion_ddot": 0,
        "tle_line1": "1 31159U 99025BHM 25338.15227477  .00113697  00000+0  24970-2 0  9990",
        "tle_line2": "2 31159  97.7987 297.2344 0117538  43.5232 317.5213 15.36557220994216"
      },
      "geometry": {
        "type": "Point",
        "coordinates": [
          85.78216638688544,
          -76.20044004205836
        ]
      }
    },
    {
      "type": "Feature",
      "properties": {
        "norad_id": 31160,
        "name": "FENGYUN 1C DEB",
        "group": "fengyun-1c-debris",
        "lat": 80.7629313406357,
        "lon": -42.946179193655816,
        "alt_km": 928.9609468559547,
        "timestamp": "2025-12-06T11:28:11.343161+00:00",
        "meta_object_name": "FENGYUN 1C DEB",
        "meta_object_id": "1999-025BHN",
        "meta_epoch": "2025-12-05T21:19:14.200320",
        "meta_mean_motion": 13.99589684,
        "meta_eccentricity": 0.00568735,
        "meta_inclination": 99.0866,
        "meta_ra_of_asc_node": 36.2206,
        "meta_arg_of_pericenter": 275.188,
        "meta_mean_anomaly": 84.2795,
        "meta_ephemeris_type": 0,
        "meta_classification_type": "U",
        "meta_norad_cat_id": 31160,
        "meta_element_set_no": 999,
        "meta_rev_at_epoch": 69503,
        "meta_bstar": 0.00025249957,
        "meta_mean_motion_dot": 3.29e-06,
        "meta_mean_motion_ddot": 0,
        "tle_line1": "1 31160U 99025BHN 25339.88835880  .00000329  00000+0  25250-3 0  9996",
        "tle_line2": "2 31160  99.0866  36.2206 0056873 275.1880  84.2795 13.99589684695030"
      },
      "geometry": {
        "type": "Point",
        "coordinates": [
          -42.946179193655816,
          80.7629313406357
        ]
      }
    },
    {
      "type": "Feature",
      "properties": {
        "norad_id": 31161,
        "name": "FENGYUN 1C DEB",
        "group": "fengyun-1c-debris",
        "lat": -79.94058850462362,
        "lon": 62.48249172270535,
        "alt_km": 871.5207812912158,
        "timestamp": "2025-12-06T11:28:11.343171+00:00",
        "meta_object_name": "FENGYUN 1C DEB",
        "meta_object_id": "1999-025BHP",
        "meta_epoch": "2025-12-05T06:54:06.570720",
        "meta_mean_motion": 14.09237044,
        "meta_eccentricity": 0.00686579,
        "meta_inclination": 98.7494,
        "meta_ra_of_asc_node": 1.0857,
        "meta_arg_of_pericenter": 11.3016,
        "meta_mean_anomaly": 348.9678,
        "meta_ephemeris_type": 0,
        "meta_classification_type": "U",
        "meta_norad_cat_id": 31161,
        "meta_element_set_no": 999,
        "meta_rev_at_epoch": 95997,
        "meta_bstar": 0.00057404082,
        "meta_mean_motion_dot": 9.78e-06,
        "meta_mean_motion_ddot": 0,
        "tle_line1": "1 31161U 99025BHP 25339.28757605  .00000978  00000+0  57404-3 0  9995",
        "tle_line2": "2 31161  98.7494   1.0857 0068657  11.3016 348.9678 14.09237044959978"
      },
      "geometry": {
        "type": "Point",
        "coordinates": [
          62.48249172270535,
          -79.94058850462362
        ]
      }
    }
  ]
}